NETSAT-1
1 46506U 20068W   25036.17199288  .00014911  00000-0  68711-3 0  9990
2 46506  97.8353   5.3857 0005235 312.9439  47.1355 15.20375464239435
NETSAT-2
1 46507U 20068X   25035.48662792  .00020668  00000-0  83833-3 0  9997
2 46507  97.8331   6.4038 0004347 323.5180  36.5760 15.24648925239395
ARKTIKA-M1
1 47719U 21016A   25031.05147955  .00000103  00000-0  00000-0 0  9999
2 47719  63.1316 124.8980 7038799 268.4806  17.2103  2.00621670 28715
SIMBA
1 47941U 21022K   25036.21010812  .00033983  00000-0  97401-3 0  9993
2 47941  97.4364 298.7138 0013638  48.0743 312.1661 15.35736374214040
UNISAT-7
1 47945U 21022P   25035.25518931  .00016543  00000-0  65739-3 0  9997
2 47945  97.4359 294.3984 0014082  53.5752 306.6782 15.25293046213587
CUBESX-SIRIUS-HSE
1 47951U 21022V   25036.22349843  .00077038  00000-0  13231-2 0  9991
2 47951  97.4347 303.1887 0010574  42.0155 318.1906 15.50825236214345
CUBESX-HSE (RS13S)
1 47952U 21022W   25036.20661580  .00086327  00000-0  14573-2 0  9996
2 47952  97.4346 303.3425 0010315  39.7414 320.4591 15.51278485214355
KSU-CUBESAT
1 47954U 21022Y   25036.00944532  .00195743  00000-0  17121-2 0  9992
2 47954  97.4326 306.9240 0008196  51.0750 309.1240 15.68269004214285
CHALLENGEONE
1 47956U 21022AA  25036.16992443  .00106060  00000-0  14688-2 0  9994
2 47956  97.4340 304.4260 0010028  41.1371 319.0638 15.56675400214205
GRBALPHA
1 47959U 21022AD  25036.16748810  .00083202  00000-0  14114-2 0  9990
2 47959  97.4339 303.4655 0010567  41.3181 318.8869 15.51150499213171
ORBICRAFT-ZORKIY (RS15S)
1 47960U 21022AE  25036.16463442  .00135613  00000-0  16076-2 0  9990
2 47960  97.4335 306.3833 0008922  43.4490 316.7469 15.60726552214024
CSS (TIANHE-1)
1 48274U 21035A   25036.19923548  .00037687  00000-0  47287-3 0  9995
2 48274  41.4657 104.0827 0002663  94.0616 266.0526 15.58984544215524
FENGYUN-4B
1 48808U 21047A   25035.77589425 -.00000325  00000-0  00000+0 0  9994
2 48808   0.1223  82.2035 0012064 355.0060  81.7808  1.00264356 13575
TUBIN
1 48900U 21059X   25036.11713034  .00043649  00000-0  86276-3 0  9992
2 48900  97.6653 196.6023 0005223 337.5057  22.5962 15.46990917200715
BRO-4
1 49066U 21073A   25036.17322359  .01378497  12071-2  18043-2 0  9996
2 49066  97.4183 126.2017 0006457 267.6115  92.4427 16.07211398192893
LEDSAT
1 49069U 21073D   25036.18144340  .00050515  00000-0  11220-2 0  9996
2 49069  97.4055 114.1201 0013193 170.7303 189.4191 15.43443986192145
CUTE-LASP
1 49263U 21088D   25036.18843706  .00053585  00000-0  13157-2 0  9991
2 49263  97.4663 109.3043 0008847 339.8330  20.2565 15.40463417185231
HEAD-2F
1 49322U 21091H   25036.17297071  .00093391  00000-0  92661-3 0  9995
2 49322  97.4156 245.2167 0005915 314.8793  45.1986 15.65468710184881
JILIN-01 GAOFEN 2F
1 49338U 21097A   25036.16625114  .00023622  11625-6  82252-3 0  9996
2 49338  97.5938 160.1038 0006661 291.6956  68.3575 15.29692046180542
TEIKYOSAT-4 (OORURI)
1 49396U 21102B   25035.54077443  .00004419  00000-0  30121-3 0  9994
2 49396  97.4287  78.4273 0012291 196.4720 163.6110 15.06688395177717
Z-SAT
1 49399U 21102E   25036.20134396  .00007795  00000-0  44813-3 0  9995
2 49399  97.4004  81.4600 0018940 170.6548 189.5039 15.12598360178160
KOSEN-1
1 49402U 21102H   25036.10507236  .00010108  00000-0  50538-3 0  9999
2 49402  97.3917  83.9218 0017528 149.5000 210.7257 15.17496335178396
CAMSAT XW-3 (CAS-9)
1 50466U 21131B   25036.23432921  .00001308  00000-0  42471-3 0  9994
2 50466  98.5147 126.2230 0004894 140.3211 219.8336 14.40512025163545
SICH-2-1 (SICH-2-30)
1 51030U 22002AY  25036.14134556  .00045866  00000-0  87580-3 0  9990
2 51030  97.3539 109.3386 0004078 280.0149  80.0641 15.47985126170173
IRIS-A
1 51044U 22002BN  25036.15258983  .00077976  00000-0  11043-2 0  9994
2 51044  97.3474 110.8529 0003852 275.2696  84.8119 15.56221053170314
VZLUSAT-2
1 51085U 22002DF  25036.17713795  .00040599  00000-0  89217-3 0  9998
2 51085  97.3531 106.6644 0006541 300.6699  59.3904 15.43881750170005
INSPIRESAT-1
1 51657U 22013B   25036.06968833  .00023405  00000-0  63163-3 0  9997
2 51657  97.5103  62.2366 0008599  67.5356 292.6798 15.37746830165200
GOES-18
1 51850U 22021A   25036.24832690  .00000099  00000-0  00000+0 0  9993
2 51850   0.0258 298.9603 0000304  49.2908  99.7571  1.00270782 10828
MERIDIAN-10
1 52145U 22030A   25035.47948701  .00000250  00000-0  00000+0 0  9995
2 52145  62.6581 193.1701 6762041 273.6037  17.5153  2.00598285 21030
BRO-7
1 52174U 22033T   25036.23356503  .00047881  00000-0  57792-3 0  9993
2 52174  97.3052 129.3412 0006737 142.7193 217.4533 15.60591790159462
BRO-6
1 52422U 22047AE  25036.14048977  .00018242  00000-0  59732-3 0  9992
2 52422  97.3746 119.7080 0006863  66.9290 293.2674 15.31701038154668
CONNECTA-T1
1 52739U 22057H   25036.14851097  .00039415  00000-0  94542-3 0  9992
2 52739  97.5955 169.5521 0006098  59.0512 301.1333 15.41266755149888
PLATFORM-1
1 52770U 22057AQ  25036.09440923  .00029139  00000-0  66967-3 0  9995
2 52770  97.5927 172.9794 0007693  26.9276 333.2369 15.42607748150142
STEP CUBELAB-II
1 52897U 22065D   25036.21408864  .00002421  00000-0  49380-3 0  9991
2 52897  98.1484 179.2402 0009459 137.2698 222.9241 14.61827409138854
RANDEV
1 52898U 22065E   25036.19405075  .00002577  00000-0  52177-3 0  9990
2 52898  98.1475 179.3773 0008703 138.4064 221.7800 14.62106709138580
SNUGLITE-II
1 52899U 22065F   25035.80385323  .00003018  00000-0  60331-3 0  9993
2 52899  98.1463 179.1917 0008243 139.3830 220.7988 14.62566094138242
MIMAN
1 52900U 22065G   25035.34794481  .00001872  00000-0  39285-3 0  9994
2 52900  98.1507 177.8282 0008382 136.7943 223.3917 14.60776417137738
GREENCUBE (IO-117)
1 53106U 22080B   25034.56446200 -.00000003  00000-0  00000-0 0  9992
2 53106  70.1417 112.1355 0008120  52.7419 307.3980  6.42557586 60132
ROBUSTA 1F (MTCUBE-2)
1 53109U 22080E   25033.12479486 -.00000003  00000-0  00000-0 0  9998
2 53109  70.1265 112.1686 0008368  36.7563 323.3669  6.42584029 59939
BLUEWALKER-3
1 53807U 22111AL  25035.49890689  .00007805  00000-0  25930-3 0  9990
2 53807  53.2329 198.3193 0009042  86.6079 273.5958 15.32144807133779
CAMSAT CAS-5A (FO-118)
1 54684U 22167C   25036.22649207  .00305830  00000-0  17608-2 0  9996
2 54684  97.6097 198.7477 0006576 333.5504  26.5425 15.77839319120311
ELEKTRO-L4
1 55506U 23016A   25035.16555011 -.00000054  00000-0  00000-0 0  9992
2 55506   0.0736 116.2119 0000932 189.3470  54.4085  1.00271349  7332
BDSAT-2
1 55098U 23001CT  25036.14924762  .00921154  41469-3  17730-2 0  9993
2 55098  97.3735 112.8172 0005164 310.4361  49.6467 16.00531187116937
SHARJAHSAT-1
1 55104U 23001CZ  25036.10148518  .00019024  00000-0  65282-3 0  9997
2 55104  97.3915  98.0278 0010073  93.1908 267.0485 15.30147992116030
METEOR M2-3
1 57166U 23091A   25036.12286379  .00000039  00000-0  36039-4 0  9991
2 57166  98.6812  94.3249 0004315 160.5632 199.5712 14.23974521 83775
STRATOSAT-TK1 (RS52S)
1 57167U 23091B   25036.22342767  .00037534  00000-0  13522-2 0  9997
2 57167  97.5753  96.6358 0011499  33.7681 326.4289 15.28402948 88949
RESHUCUBE-2 (RS37S)
1 57168U 23091C   25036.17327963  .00012677  00000-0  67336-3 0  9997
2 57168  97.5774  93.0109 0015379  44.8821 315.3651 15.15344835 88708
RASSVET 1-1
1 57169U 23091D   25036.17059561  .00010538  00000-0  57679-3 0  9997
2 57169  97.5825  93.0689 0013258  36.2418 323.9710 15.14353777 88693
RASSVET 1-2
1 57170U 23091E   25036.17071232  .00010468  00000-0  57327-3 0  9990
2 57170  97.5830  93.1114 0011783  28.8580 331.3301 15.14352818 88697
RASSVET 1-3
1 57171U 23091F   25036.17036726  .00010616  00000-0  58082-3 0  9994
2 57171  97.5826  93.0861 0014337  45.7739 314.4667 15.14354099 88693
UMKA-1 (RS40S)
1 57172U 23091G   25036.17823680  .00009489  00000-0  54043-3 0  9997
2 57172  97.5785  92.2826 0016131  47.2943 312.9643 15.12924273 88656
SATURN (RS43S)
1 57174U 23091J   25036.19112125  .00004590  00000-0  29234-3 0  9998
2 57174  97.5801  90.7903 0016072  60.8015 299.4819 15.09147293 88559
CUBEBEL-2 (EU11S)
1 57175U 23091K   25036.21728467  .00013628  00000-0  71855-3 0  9992
2 57175  97.5790  92.8332 0014326  57.0328 303.2279 15.15602188 88696
SITRO-AIS-5 (ANOKHIN)
1 57176U 23091L   25036.17487109  .00014153  00000-0  73649-3 0  9990
2 57176  97.5790  93.1168 0016120  45.0132 315.2404 15.16034332 88708
ZORKIY-2M
1 57177U 23091M   25036.22559538  .00008425  00000-0  48181-3 0  9991
2 57177  97.5820  92.5134 0016758  43.2165 317.0377 15.12806803 88662
CUBESX-HSE-3 (RS42S)
1 57178U 23091N   25036.21423495  .00014791  00000-0  75293-3 0  9990
2 57178  97.5820  93.7351 0015596  39.0635 321.1720 15.16806557 88737
PHI-DEMO
1 57181U 23091R   25036.12249195  .00005405  00000-0  33831-3 0  9991
2 57181  97.5800  91.0193 0018024  52.3680 307.9181 15.09681358 88567
MONITOR-3 (RS58S)
1 57180U 23091Q   25036.12282634  .00012227  00000-0  64466-3 0  9993
2 57180  97.5812  93.1946 0016107  40.4522 319.7905 15.15607908 88696
NORBY-2
1 57179U 23091P   25036.15820335  .00007578  00000-0  45926-3 0  9993
2 57179  97.5834  91.7285 0017806  44.0643 316.2002 15.10725647 88594
MONITOR-4 (RS57S)
1 57182U 23091S   25036.12257103  .00012344  00000-0  65015-3 0  9999
2 57182  97.5806  93.1533 0016137  41.0605 319.1839 15.15640369 88693
MONITOR-2 (RS39S)
1 57184U 23091U   25036.11248549  .00008174  00000-0  47458-3 0  9991
2 57184  97.5813  92.5997 0013800  38.4496 321.7715 15.12306289 88657
SVYATOBOR-1 (RS60S)
1 57187U 23091X   25036.09168096  .00012335  00000-0  64773-3 0  9992
2 57187  97.5817  93.8626 0012661  33.5414 326.6618 15.15792040 88739
VIZARD-METEO (RS38S)
1 57189U 23091Z   25036.16783216  .00016907  00000-0  80652-3 0  9992
2 57189  97.5805  95.0831 0011125  28.6578 331.5265 15.19098584 88829
NANOZOND-1 (RS49S)
1 57190U 23091AA  25036.11471358  .00031232  00000-0  11853-2 0  9994
2 57190  97.5764  97.0963 0008607  27.5939 332.5755 15.26752830 88962
